[
    {
        "Altitude(m)": 554256.0698540296,
        "Argument of Periapsis(deg)": 0.0,
        "Eccentricity": 0.0,
        "Inclination(deg)": 53.0,
        "Latitude(deg)": -0.07933191870336326,
        "Longitude(deg)": -174.9098225116893,
        "Mean Anomaly(deg)": 179.99999999999997,
        "RAAN(deg)": 105.0,
        "Satellite Name": "Starlink Shell 1 473",
        "Satellite Number": 473,
        "Semi-Major Axis(m)": 6931778.249405717,
        "Time(s)": 0
    },
    {
        "Altitude(m)": 554323.2810560145,
        "Argument of Periapsis(deg)": 0.00034857847951123687,
        "Eccentricity": 0.0,
        "Inclination(deg)": 53.0,
        "Latitude(deg)": -0.583260197763559,
        "Longitude(deg)": -174.5744461266406,
        "Mean Anomaly(deg)": 180.62683120355672,
        "RAAN(deg)": 104.99948122992254,
        "Satellite Name": "Starlink Shell 1 473",
        "Satellite Number": 473,
        "Semi-Major Axis(m)": 6931778.249405717,
        "Time(s)": 10
    },
    {
        "Altitude(m)": 554393.2782785194,
        "Argument of Periapsis(deg)": 0.0006971569590224737,
        "Eccentricity": 0.0,
        "Inclination(deg)": 53.0,
        "Latitude(deg)": -1.0871524161239838,
        "Longitude(deg)": -174.23901009126502,
        "Mean Anomaly(deg)": 181.25366240711347,
        "RAAN(deg)": 104.99896245984507,
        "Satellite Name": "Starlink Shell 1 473",
        "Satellite Number": 473,
        "Semi-Major Axis(m)": 6931778.249405717,
        "Time(s)": 20
    },
    {
        "Altitude(m)": 554466.0512858576,
        "Argument of Periapsis(deg)": 0.0010457354385337105,
        "Eccentricity": 0.0,
        "Inclination(deg)": 53.0,
        "Latitude(deg)": -1.5909856717323516,
        "Longitude(deg)": -173.90345685703215,
        "Mean Anomaly(deg)": 181.88049361067016,
        "RAAN(deg)": 104.9984436897676,
        "Satellite Name": "Starlink Shell 1 473",
        "Satellite Number": 473,
        "Semi-Major Axis(m)": 6931778.249405717,
        "Time(s)": 30
    },
    {
        "Altitude(m)": 554541.5884915921,
        "Argument of Periapsis(deg)": 0.0013943139180449475,
        "Eccentricity": 0.0,
        "Inclination(deg)": 53.0,
        "Latitude(deg)": -2.094737041120153,
        "Longitude(deg)": -173.56772832237885,
        "Mean Anomaly(deg)": 182.50732481422682,
        "RAAN(deg)": 104.9979249196901,
        "Satellite Name": "Starlink Shell 1 473",
        "Satellite Number": 473,
        "Semi-Major Axis(m)": 6931778.249405717,
        "Time(s)": 40
    },
    {
        "Altitude(m)": 554619.8769615762,
        "Argument of Periapsis(deg)": 0.0017428923975561844,
        "Eccentricity": 0.0,
        "Inclination(deg)": 53.0,
        "Latitude(deg)": -2.5983835676905818,
        "Longitude(deg)": -173.23176681605477,
        "Mean Anomaly(deg)": 183.13415601778357,
        "RAAN(deg)": 104.99740614961264,
        "Satellite Name": "Starlink Shell 1 473",
        "Satellite Number": 473,
        "Semi-Major Axis(m)": 6931778.249405717,
        "Time(s)": 50
    },
    {
        "Altitude(m)": 554700.9024176468,
        "Argument of Periapsis(deg)": 0.002091470877067421,
        "Eccentricity": 0.0,
        "Inclination(deg)": 53.0,
        "Latitude(deg)": -3.1019022499759874,
        "Longitude(deg)": -172.89551456757573,
        "Mean Anomaly(deg)": 183.76098722134037,
        "RAAN(deg)": 104.99688737953517,
        "Satellite Name": "Starlink Shell 1 473",
        "Satellite Number": 473,
        "Semi-Major Axis(m)": 6931778.249405717,
        "Time(s)": 60
    },
    {
        "Altitude(m)": 554784.6492420014,
        "Argument of Periapsis(deg)": 0.0024400493565786582,
        "Eccentricity": 0.0,
        "Inclination(deg)": 53.0,
        "Latitude(deg)": -3.60527002985105,
        "Longitude(deg)": -172.55891317765142,
        "Mean Anomaly(deg)": 184.38781842489698,
        "RAAN(deg)": 104.9963686094577,
        "Satellite Name": "Starlink Shell 1 473",
        "Satellite Number": 473,
        "Semi-Major Axis(m)": 6931778.249405717,
        "Time(s)": 70
    },
    {
        "Altitude(m)": 554871.1004822522,
        "Argument of Periapsis(deg)": 0.002788627836089895,
        "Eccentricity": 0.0,
        "Inclination(deg)": 53.0,
        "Latitude(deg)": -4.1084637806879725,
        "Longitude(deg)": -172.22190460145214,
        "Mean Anomaly(deg)": 185.0146496284537,
        "RAAN(deg)": 104.99584983938023,
        "Satellite Name": "Starlink Shell 1 473",
        "Satellite Number": 473,
        "Semi-Major Axis(m)": 6931778.249405717,
        "Time(s)": 80
    },
    {
        "Altitude(m)": 554960.237857123,
        "Argument of Periapsis(deg)": 0.0031372063156011316,
        "Eccentricity": 0.0,
        "Inclination(deg)": 53.0,
        "Latitude(deg)": -4.611460295446048,
        "Longitude(deg)": -171.88443061896373,
        "Mean Anomaly(deg)": 185.6414808320104,
        "RAAN(deg)": 104.99533106930275,
        "Satellite Name": "Starlink Shell 1 473",
        "Satellite Number": 473,
        "Semi-Major Axis(m)": 6931778.249405717,
        "Time(s)": 90
    },
    {
        "Altitude(m)": 555052.0417628442,
        "Argument of Periapsis(deg)": 0.0034857847951123688,
        "Eccentricity": 0.0,
        "Inclination(deg)": 53.0,
        "Latitude(deg)": -5.114236274684303,
        "Longitude(deg)": -171.54643230529396,
        "Mean Anomaly(deg)": 186.26831203556716,
        "RAAN(deg)": 104.99481229922527,
        "Satellite Name": "Starlink Shell 1 473",
        "Satellite Number": 473,
        "Semi-Major Axis(m)": 6931778.249405717,
        "Time(s)": 100
    },
    {
        "Altitude(m)": 555146.4912801883,
        "Argument of Periapsis(deg)": 0.003834363274623606,
        "Eccentricity": 0.0,
        "Inclination(deg)": 53.0,
        "Latitude(deg)": -5.616768314480549,
        "Longitude(deg)": -171.20785101380037,
        "Mean Anomaly(deg)": 186.89514323912388,
        "RAAN(deg)": 104.99429352914781,
        "Satellite Name": "Starlink Shell 1 473",
        "Satellite Number": 473,
        "Semi-Major Axis(m)": 6931778.249405717,
        "Time(s)": 110
    },
    {
        "Altitude(m)": 555243.5641821654,
        "Argument of Periapsis(deg)": 0.004182941754134842,
        "Eccentricity": 0.0,
        "Inclination(deg)": 53.0,
        "Latitude(deg)": -6.119032894252508,
        "Longitude(deg)": -170.8686278462854,
        "Mean Anomaly(deg)": 187.52197444268057,
        "RAAN(deg)": 104.99377475907033,
        "Satellite Name": "Starlink Shell 1 473",
        "Satellite Number": 473,
        "Semi-Major Axis(m)": 6931778.249405717,
        "Time(s)": 120
    },
    {
        "Altitude(m)": 555343.2369423796,
        "Argument of Periapsis(deg)": 0.004531520233646079,
        "Eccentricity": 0.0,
        "Inclination(deg)": 53.0,
        "Latitude(deg)": -6.6210063644664405,
        "Longitude(deg)": -170.5287031231268,
        "Mean Anomaly(deg)": 188.1488056462373,
        "RAAN(deg)": 104.99325598899287,
        "Satellite Name": "Starlink Shell 1 473",
        "Satellite Number": 473,
        "Semi-Major Axis(m)": 6931778.249405717,
        "Time(s)": 130
    },
    {
        "Altitude(m)": 555445.4847440228,
        "Argument of Periapsis(deg)": 0.0048800987131573164,
        "Eccentricity": 0.0,
        "Inclination(deg)": 53.0,
        "Latitude(deg)": -7.122664934218085,
        "Longitude(deg)": -170.18801736621282,
        "Mean Anomaly(deg)": 188.77563684979398,
        "RAAN(deg)": 104.9927372189154,
        "Satellite Name": "Starlink Shell 1 473",
        "Satellite Number": 473,
        "Semi-Major Axis(m)": 6931778.249405717,
        "Time(s)": 140
    },
    {
        "Altitude(m)": 555550.2814895349,
        "Argument of Periapsis(deg)": 0.005228677192668553,
        "Eccentricity": 0.0,
        "Inclination(deg)": 53.0,
        "Latitude(deg)": -7.623984658681122,
        "Longitude(deg)": -169.84651076892973,
        "Mean Anomaly(deg)": 189.40246805335076,
        "RAAN(deg)": 104.99221844883792,
        "Satellite Name": "Starlink Shell 1 473",
        "Satellite Number": 473,
        "Semi-Major Axis(m)": 6931778.249405717,
        "Time(s)": 150
    },
    {
        "Altitude(m)": 555657.5998108806,
        "Argument of Periapsis(deg)": 0.00557725567217979,
        "Eccentricity": 0.0,
        "Inclination(deg)": 53.0,
        "Latitude(deg)": -8.124941426407835,
        "Longitude(deg)": -169.5041226660727,
        "Mean Anomaly(deg)": 190.02929925690745,
        "RAAN(deg)": 104.99169967876044,
        "Satellite Name": "Starlink Shell 1 473",
        "Satellite Number": 473,
        "Semi-Major Axis(m)": 6931778.249405717,
        "Time(s)": 160
    },
    {
        "Altitude(m)": 555767.4110804626,
        "Argument of Periapsis(deg)": 0.0059258341516910265,
        "Eccentricity": 0.0,
        "Inclination(deg)": 53.0,
        "Latitude(deg)": -8.625510946468545,
        "Longitude(deg)": -169.16079251654895,
        "Mean Anomaly(deg)": 190.65613046046417,
        "RAAN(deg)": 104.99118090868298,
        "Satellite Name": "Starlink Shell 1 473",
        "Satellite Number": 473,
        "Semi-Major Axis(m)": 6931778.249405717,
        "Time(s)": 170
    },
    {
        "Altitude(m)": 555879.6854226916,
        "Argument of Periapsis(deg)": 0.006274412631202263,
        "Eccentricity": 0.0,
        "Inclination(deg)": 53.0,
        "Latitude(deg)": -9.12566873542145,
        "Longitude(deg)": -168.8164593731267,
        "Mean Anomaly(deg)": 191.28296166402086,
        "RAAN(deg)": 104.9906621386055,
        "Satellite Name": "Starlink Shell 1 473",
        "Satellite Number": 473,
        "Semi-Major Axis(m)": 6931778.249405717,
        "Time(s)": 180
    }
]